LEMUR-2-ROUNDTRIPPER    
1 62711U 25009DG  26188.18676831  .00006648  00000+0  48362-3 0  9997
2 62711  97.7223 270.8397 0004457  82.7690 277.4043 15.04138808 80639
LEMUR-2-MYNAMEISJEFF    
1 62712U 25009DH  26188.71741088  .00006089  00000+0  44337-3 0  9991
2 62712  97.7279 271.7629 0003591 115.0879 245.0719 15.04137151 80716
LEMUR-2-LEIA-PHILIP     
1 63246U 25052AN  26188.51864188  .00001930  00000+0  17109-3 0  9994
2 63246  97.6815  80.1253 0004889 138.7865 221.3727 14.97376769 71714
LEMUR-2-LIA-MARTIN      
1 63248U 25052AQ  26187.64800424  .00004626  00000+0  39684-3 0  9999
2 63248  97.6861  79.7730 0005203 111.5295 248.6482 14.97976249 71593
LEMUR-2-DELOITTE-1      
1 63259U 25052BB  26188.69600532  .00002391  00000+0  20879-3 0  9998
2 63259  97.6883  81.1366 0002285  66.1516 293.9945 14.97747072 71765
LEMUR-2-EMERSONROSE     
1 63261U 25052BD  26188.18377091  .00003566  00000+0  29729-3 0  9994
2 63261  97.6871  81.2273 0002748  73.8140 286.3386 14.99240847 71737
LEMUR-2-MARACHE-FRAN    
1 63262U 25052BE  26188.67885867  .00002453  00000+0  20052-3 0  9998
2 63262  97.6864  82.0740 0004540 287.5282  72.5445 15.00283494 71831
LEMUR-2-THEFALCONER     
1 63264U 25052BG  26188.52495062  .00002954  00000+0  25819-3 0  9990
2 63264  97.6846  80.5658 0000897  26.3470 333.7797 14.97535872 71739
LEMUR-2-UNTITLED-SC     
1 63351U 25061A   26188.51735684  .00002011  00000+0  11526-3 0  9997
2 63351  97.5648 163.7332 0018398 189.2153 170.8744 15.13613803 70663
LEMUR-2-ESPERANZA       
1 63352U 25061B   26188.36102578  .00003389  00000+0  19115-3 0  9992
2 63352  97.5652 163.6759 0018011 189.3073 170.7827 15.13720454 70645
LEMUR-2-KREMPEL-BRO2    
1 63353U 25061C   26188.51436627  .00002040  00000+0  11515-3 0  9994
2 63353  97.5701 164.3879 0019171 181.1590 178.9600 15.14144682 70681
LEMUR-2-THERMORAPTOR    
1 63354U 25061D   26188.42926386  .00002562  00000+0  14336-3 0  9994
2 63354  97.5706 164.3826 0018930 180.3649 179.7572 15.14226483 70673
LEMUR-2-NEUROSPICY      
1 63355U 25061E   26188.46546121  .00002707  00000+0  15088-3 0  9990
2 63355  97.5635 164.0292 0016679 183.0672 177.0461 15.14346479 70680
LEMUR-2-TILLINFINITY    
1 63356U 25061F   26188.36080622  .00002745  00000+0  15039-3 0  9997
2 63356  97.5620 164.2297 0018249 172.0497 188.1027 15.14927907 70693
LEMUR-2-KREMPEL-BRO1    
1 63357U 25061G   26188.40291932  .00002911  00000+0  16005-3 0  9990
2 63357  97.5621 164.1821 0018889 173.2750 186.8739 15.14737364 70693
LEMUR-2-LANGER2SPACE    
1 63358U 25061H   26188.49954692  .00002376  00000+0  13256-3 0  9999
2 63358  97.5624 164.0841 0016629 181.3139 178.8052 15.14430042 70691
LEMUR-2-BALTO           
1 63395U 25052BH  26188.19657571  .00003856  00000+0  31220-3 0  9998
2 63395  97.6926  81.5775 0005648 359.1139   1.0073 15.00313404 71767
LEMUR-2-KRISH           
1 64561U 25135AK  26188.27005824  .00004210  00000+0  37657-3 0  9998
2 64561  97.7760 303.0109 0001744 100.7810 259.3608 14.96401488 56929
LEMUR-2-HUBBLE-4        
1 64565U 25135AP  26188.77225590  .00001069  00000+0  10646-3 0  9999
2 64565  97.7714 302.4375 0002013 183.5460 176.5746 14.93670036 56949
LEMUR-2-SEJONG-2        
1 64586U 25135BL  26188.82832657  .00002560  00000+0  22826-3 0  9996
2 64586  97.7706 303.7117 0003240 252.0265 108.0603 14.96877871 57031
LEMUR-2-HUBBLE-5        
1 64840U 25135BT  26188.24797833  .00001328  00000+0  12931-3 0  9998
2 64840  97.7733 302.5797 0004102 269.9284  90.1466 14.94195555 56904
LEMUR-2-KARENDARRELL    
1 64841U 25135BU  26188.79414569  .00005120  00000+0  41132-3 0  9990
2 64841  97.7695 304.9727 0011706 128.1814 232.0466 15.00431168 57105
LEMUR-2-LUCILLE-ROSE    
1 65403U 25135BV  26188.56749785  .00004390  00000+0  35328-3 0  9999
2 65403  97.7716 304.7812 0013915 212.5879 147.4487 15.00427742 51693
LEMUR-2-AFFIE-WAUWIE    
1 66295U 25248C   26186.82496654  .00022785  00000+0  82702-3 0  9991
2 66295  45.3926  13.9564 0008364 202.7682 157.2838 15.27976863 37441
OTTER SDM               
1 66678U 25276N   26188.72435049  .00004004  00000+0  18905-3 0  9997
2 66678  97.4202 261.8614 0004254 288.6878  71.3895 15.19997470 33538
LEMUR-2-STAS-GORBUK     
1 66686U 25276W   26188.74384779  .00004017  00000+0  19182-3 0  9993
2 66686  97.4236 261.9334 0003445 285.9321  74.1534 15.19607742 33539
LEMUR-2-TEODOR          
1 66768U 25276DG  26188.77083347  .00003789  00000+0  17255-3 0  9998
2 66768  97.4139 262.2223 0002330  95.1979 264.9522 15.21283803 33576
LEMUR-2-LAILA           
1 66776U 25276DQ  26188.74173508  .00004166  00000+0  18818-3 0  9999
2 66776  97.4165 262.3276 0002903 105.7296 254.4260 15.21509372 33574
LEMUR-2-CELIJO-SB-PK    
1 66781U 25276DW  26188.71483760  .00003905  00000+0  31654-3 0  9999
2 66781  97.5198 258.8159 0007386  82.7841 277.4223 15.00234057 25709
LEMUR-2-FINNIAN         
1 66782U 25276DX  26188.15331084  .00002687  00000+0  21743-3 0  9993
2 66782  97.5346 258.5193 0008123  28.2723 331.8940 15.00553279 22993
