OBJECT_NAME,OBJECT_ID,EPOCH,MEAN_MOTION,ECCENTRICITY,INCLINATION,RA_OF_ASC_NODE,ARG_OF_PERICENTER,MEAN_ANOMALY,EPHEMERIS_TYPE,CLASSIFICATION_TYPE,NORAD_CAT_ID,ELEMENT_SET_NO,REV_AT_EPOCH,BSTAR,MEAN_MOTION_DOT,MEAN_MOTION_DDOT
LEMUR-2-ROUNDTRIPPER,2025-009DG,2026-07-07T04:28:56.781984,15.04138808,.00044576,97.7223,270.8397,82.7690,277.4043,0,U,62711,999,8063,.48361614E-3,.6648E-4,0
LEMUR-2-MYNAMEISJEFF,2025-009DH,2026-07-07T17:13:04.300032,15.04137151,.0003591,97.7279,271.7629,115.0879,245.0719,0,U,62712,999,8071,.44337E-3,.6089E-4,0
LEMUR-2-LEIA-PHILIP,2025-052AN,2026-07-07T12:26:50.658432,14.97376769,.00048895,97.6815,80.1253,138.7865,221.3727,0,U,63246,999,7171,.17109045E-3,.193E-4,0
LEMUR-2-LIA-MARTIN,2025-052AQ,2026-07-06T15:33:07.566336,14.97976249,.00052032,97.6861,79.7730,111.5295,248.6482,0,U,63248,999,7159,.39684422E-3,.4626E-4,0
LEMUR-2-DELOITTE-1,2025-052BB,2026-07-07T16:42:14.859648,14.97747072,.0002285,97.6883,81.1366,66.1516,293.9945,0,U,63259,999,7176,.20879E-3,.2391E-4,0
LEMUR-2-EMERSONROSE,2025-052BD,2026-07-07T04:24:37.806624,14.99240847,.00027484,97.6871,81.2273,73.8140,286.3386,0,U,63261,999,7173,.29728698E-3,.3566E-4,0
LEMUR-2-MARACHE-FRAN,2025-052BE,2026-07-07T16:17:33.389088,15.00283494,.000454,97.6864,82.0740,287.5282,72.5445,0,U,63262,999,7183,.20052E-3,.2453E-4,0
LEMUR-2-THEFALCONER,2025-052BG,2026-07-07T12:35:55.733568,14.97535872,.00008975,97.6846,80.5658,26.3470,333.7797,0,U,63264,999,7173,.25818791E-3,.2954E-4,0
LEMUR-2-UNTITLED-SC,2025-061A,2026-07-07T12:24:59.630976,15.13613803,.0018398,97.5648,163.7332,189.2153,170.8744,0,U,63351,999,7066,.11526E-3,.2011E-4,0
LEMUR-2-ESPERANZA,2025-061B,2026-07-07T08:39:52.627392,15.13720454,.00180119,97.5652,163.6759,189.3073,170.7827,0,U,63352,999,7064,.19115182E-3,.3389E-4,0
LEMUR-2-KREMPEL-BRO2,2025-061C,2026-07-07T12:20:41.245728,15.14144682,.0019171,97.5701,164.3879,181.1590,178.9600,0,U,63353,999,7068,.11515E-3,.204E-4,0
LEMUR-2-THERMORAPTOR,2025-061D,2026-07-07T10:18:08.397504,15.14226483,.00189309,97.5706,164.3826,180.3649,179.7572,0,U,63354,999,7067,.14336375E-3,.2562E-4,0
LEMUR-2-NEUROSPICY,2025-061E,2026-07-07T11:10:15.848544,15.14346479,.00166794,97.5635,164.0292,183.0672,177.0461,0,U,63355,999,7068,.15088011E-3,.2707E-4,0
LEMUR-2-TILLINFINITY,2025-061F,2026-07-07T08:39:33.657408,15.14927907,.00182493,97.5620,164.2297,172.0497,188.1027,0,U,63356,999,7069,.15038743E-3,.2745E-4,0
LEMUR-2-KREMPEL-BRO1,2025-061G,2026-07-07T09:40:12.229248,15.14737364,.00188891,97.5621,164.1821,173.2750,186.8739,0,U,63357,999,7069,.160049E-3,.2911E-4,0
LEMUR-2-LANGER2SPACE,2025-061H,2026-07-07T11:59:20.853888,15.14430042,.00166295,97.5624,164.0841,181.3139,178.8052,0,U,63358,999,7069,.13255804E-3,.2376E-4,0
LEMUR-2-BALTO,2025-052BH,2026-07-07T04:43:04.141344,15.00313404,.00056486,97.6926,81.5775,359.1139,1.0073,0,U,63395,999,7176,.31219968E-3,.3856E-4,0
LEMUR-2-KRISH,2025-135AK,2026-07-07T06:28:53.031936,14.96401488,.00017444,97.7760,303.0109,100.7810,259.3608,0,U,64561,999,5692,.37657303E-3,.421E-4,0
LEMUR-2-HUBBLE-4,2025-135AP,2026-07-07T18:32:02.909760,14.93670036,.0002013,97.7714,302.4375,183.5460,176.5746,0,U,64565,999,5694,.10646E-3,.1069E-4,0
LEMUR-2-SEJONG-2,2025-135BL,2026-07-07T19:52:47.415648,14.96877871,.000324,97.7706,303.7117,252.0265,108.0603,0,U,64586,999,5703,.22826E-3,.256E-4,0
LEMUR-2-HUBBLE-5,2025-135BT,2026-07-07T05:57:05.327712,14.94195555,.00041029,97.7733,302.5797,269.9284,90.1466,0,U,64840,999,5690,.12930824E-3,.1328E-4,0
LEMUR-2-KARENDARRELL,2025-135BU,2026-07-07T19:03:34.187616,15.00431168,.0011706,97.7695,304.9727,128.1814,232.0466,0,U,64841,999,5710,.41132E-3,.512E-4,0
LEMUR-2-LUCILLE-ROSE,2025-135BV,2026-07-07T13:37:11.814240,15.00427742,.0013915,97.7716,304.7812,212.5879,147.4487,0,U,65403,999,5169,.35328E-3,.439E-4,0
LEMUR-2-AFFIE-WAUWIE,2025-248C,2026-07-05T19:47:57.109056,15.27976863,.0008364,45.3926,13.9564,202.7682,157.2838,0,U,66295,999,3744,.82702E-3,.22785E-3,0
OTTER SDM,2025-276N,2026-07-07T17:23:03.882336,15.19997470,.0004254,97.4202,261.8614,288.6878,71.3895,0,U,66678,999,3353,.18905E-3,.4004E-4,0
LEMUR-2-STAS-GORBUK,2025-276W,2026-07-07T17:51:08.449056,15.19607742,.0003445,97.4236,261.9334,285.9321,74.1534,0,U,66686,999,3353,.19182E-3,.4017E-4,0
LEMUR-2-TEODOR,2025-276DG,2026-07-07T18:30:00.011808,15.21283803,.000233,97.4139,262.2223,95.1979,264.9522,0,U,66768,999,3357,.17255E-3,.3789E-4,0
LEMUR-2-LAILA,2025-276DQ,2026-07-07T17:48:05.910912,15.21509372,.0002903,97.4165,262.3276,105.7296,254.4260,0,U,66776,999,3357,.18818E-3,.4166E-4,0
LEMUR-2-CELIJO-SB-PK,2025-276DW,2026-07-07T17:09:21.968640,15.00234057,.0007386,97.5198,258.8159,82.7841,277.4223,0,U,66781,999,2570,.31654E-3,.3905E-4,0
LEMUR-2-FINNIAN,2025-276DX,2026-07-07T03:40:46.056576,15.00553279,.00081236,97.5346,258.5193,28.2723,331.8940,0,U,66782,999,2299,.21742572E-3,.2687E-4,0
